GLOBALSTAR M001         
1 25162U 98008A   26017.18578559 -.00000101  00000+0 -33670-4 0  9991
2 25162  52.0041  70.3553 0001056   4.6904  32.9489 12.38225857270229
GLOBALSTAR M004         
1 25163U 98008B   26017.30197317 -.00000075  00000+0  15788-3 0  9993
2 25163  51.9999 120.9306 0003536  58.8917 319.4962 12.63412764288757
GLOBALSTAR M002         
1 25164U 98008C   26017.27558404 -.00000058  00000+0  35725-3 0  9992
2 25164  52.0022  63.4105 0001834 168.7978 191.2883 11.61514509208940
GLOBALSTAR M003         
1 25165U 98008D   26017.22429190 -.00000186  00000+0 -10257-2 0  9992
2 25165  51.9903 295.6975 0008549   6.9963 150.4427 12.12035015259177
GLOBALSTAR M014         
1 25306U 98023A   26017.17864663 -.00000084  00000+0 -13031-3 0  9999
2 25306  51.9874 342.3780 0001294  33.8949 338.9191 11.65483768216126
GLOBALSTAR M006         
1 25307U 98023B   26017.32689435 -.00000104  00000+0 -56885-3 0  9996
2 25307  51.9953  42.4791 0003321 137.8807 235.1995 11.58176879241645
GLOBALSTAR M015         
1 25308U 98023C   26017.33229694 -.00000099  00000+0 -58762-3 0  9994
2 25308  51.9802 150.7528 0013693  98.4017 274.6404 11.48863383218692
GLOBALSTAR M008         
1 25309U 98023D   26017.22157628 -.00000060  00000+0  28536-3 0  9993
2 25309  51.9983 297.5102 0002066 276.2406 251.6850 12.36078862264319
